CS2                     
1 49262U 21088C   26068.73485932  .00018033  00000+0  56178-3 0  9999
2 49262  97.3928 134.2907 0011637  82.3491 277.9072 15.33255930245263
STARLINK-31856          
1 59960U 24107R   26068.27148884  .00002163  00000+0  85176-4 0  9999
2 59960  53.1605  67.3866 0001335  78.5274 281.5877 15.30186943 99738
